start=new Date('2022-01-22T00:00:00.000Z').valueOf();
sats=[{"DECAY_DATE":null,"INCLINATION":"53.0531","TIME_SYSTEM":"UTC","OBJECT_TYPE":"PAYLOAD","CENTER_NAME":"EARTH","FILE":"3279201","LAUNCH_DATE":"2021-03-24","MEAN_MOTION_DDOT":"0.0000000000000","ECCENTRICITY":"0.00023120","RA_OF_ASC_NODE":"191.3968","TLE_LINE1":"1 47991U 21024Q   22021.58334491 -.00068603  00000-0 -48348-2 0  9997","MEAN_MOTION_DOT":"-0.00068603","EPOCH":"2022-01-21T14:00:01.000224","OBJECT_NAME":"STARLINK-2279","ARG_OF_PERICENTER":"86.9497","COUNTRY_CODE":"US","MEAN_ELEMENT_THEORY":"SGP4","NORAD_CAT_ID":"47991","SITE":"AFETR","MEAN_ANOMALY":"191.8529","REV_AT_EPOCH":"4777","OBJECT_ID":"2021-024Q","SEMIMAJOR_AXIS":"6930.246","REF_FRAME":"TEME","APOAPSIS":"553.713","TLE_LINE2":"2 47991  53.0531 191.3968 0002312  86.9497 191.8529 15.04803417 47770","MEAN_MOTION":"15.04803417","BSTAR":"-0.00483480000000","RCS_SIZE":"LARGE","PERIAPSIS":"550.509","ELEMENT_SET_NO":"999","PERIOD":"95.694","CLASSIFICATION_TYPE":"U","GP_ID":"194304793","EPHEMERIS_TYPE":"0"},{"GP_ID":"194304464","CLASSIFICATION_TYPE":"U","EPHEMERIS_TYPE":"0","APOAPSIS":"548.930","REF_FRAME":"TEME","TLE_LINE2":"2 47992  53.0541 186.7699 0002526  80.6108 293.5850 15.06410881 47855","MEAN_MOTION":"15.06410881","BSTAR":"-0.00190780000000","PERIAPSIS":"545.431","RCS_SIZE":"LARGE","ELEMENT_SET_NO":"999","PERIOD":"95.591","OBJECT_ID":"2021-024R","SEMIMAJOR_AXIS":"6925.315","COUNTRY_CODE":"US","MEAN_ELEMENT_THEORY":"SGP4","NORAD_CAT_ID":"47992","ARG_OF_PERICENTER":"80.6108","MEAN_ANOMALY":"293.5850","SITE":"AFETR","REV_AT_EPOCH":"4785","MEAN_MOTION_DOT":"-0.00028595","OBJECT_NAME":"STARLINK-2229","EPOCH":"2022-01-21T14:00:01.000224","MEAN_MOTION_DDOT":"0.0000000000000","ECCENTRICITY":"0.00025260","TLE_LINE1":"1 47992U 21024R   22021.58334491 -.00028595  00000-0 -19078-2 0  9992","RA_OF_ASC_NODE":"186.7699","DECAY_DATE":null,"INCLINATION":"53.0541","TIME_SYSTEM":"UTC","OBJECT_TYPE":"PAYLOAD","CENTER_NAME":"EARTH","FILE":"3279201","LAUNCH_DATE":"2021-03-24"},{"TLE_LINE1":"1 47993U 21024S   22021.53010461  .00002418  00000-0  18114-3 0  9991","RA_OF_ASC_NODE":"227.0189","MEAN_MOTION_DDOT":"0.0000000000000","ECCENTRICITY":"0.00021390","INCLINATION":"53.0542","DECAY_DATE":null,"OBJECT_TYPE":"PAYLOAD","CENTER_NAME":"EARTH","LAUNCH_DATE":"2021-03-24","FILE":"3279324","TIME_SYSTEM":"UTC","MEAN_MOTION_DOT":"0.00002418","OBJECT_NAME":"STARLINK-2273","EPOCH":"2022-01-21T12:43:21.038304","OBJECT_ID":"2021-024S","SEMIMAJOR_AXIS":"6925.337","SITE":"AFETR","MEAN_ANOMALY":"278.4330","COUNTRY_CODE":"US","MEAN_ELEMENT_THEORY":"SGP4","ARG_OF_PERICENTER":"81.6901","NORAD_CAT_ID":"47993","REV_AT_EPOCH":"4780","CLASSIFICATION_TYPE":"U","GP_ID":"194329781","EPHEMERIS_TYPE":"0","MEAN_MOTION":"15.06403757","BSTAR":"0.00018114000000","REF_FRAME":"TEME","APOAPSIS":"548.683","TLE_LINE2":"2 47993  53.0542 227.0189 0002139  81.6901 278.4330 15.06403757 47806","ELEMENT_SET_NO":"999","PERIOD":"95.592","PERIAPSIS":"545.721","RCS_SIZE":"LARGE"},{"RCS_SIZE":"LARGE","PERIAPSIS":"545.570","ELEMENT_SET_NO":"999","PERIOD":"95.592","REF_FRAME":"TEME","APOAPSIS":"548.836","TLE_LINE2":"2 47994  53.0536 240.7976 0002358  67.1418 292.9820 15.06403504 47110","MEAN_MOTION":"15.06403504","BSTAR":"0.00020723000000","CLASSIFICATION_TYPE":"U","GP_ID":"194334933","EPHEMERIS_TYPE":"0","REV_AT_EPOCH":"4711","COUNTRY_CODE":"US","NORAD_CAT_ID":"47994","MEAN_ELEMENT_THEORY":"SGP4","ARG_OF_PERICENTER":"67.1418","SITE":"AFETR","MEAN_ANOMALY":"292.9820","OBJECT_ID":"2021-024T","SEMIMAJOR_AXIS":"6925.338","OBJECT_NAME":"STARLINK-2290","EPOCH":"2022-01-21T19:11:28.598784","MEAN_MOTION_DOT":"0.00002807","TIME_SYSTEM":"UTC","CENTER_NAME":"EARTH","OBJECT_TYPE":"PAYLOAD","LAUNCH_DATE":"2021-03-24","FILE":"3279430","DECAY_DATE":null,"INCLINATION":"53.0536","MEAN_MOTION_DDOT":"0.0000000000000","ECCENTRICITY":"0.00023580","TLE_LINE1":"1 47994U 21024T   22021.79963656  .00002807  00000-0  20723-3 0  9994","RA_OF_ASC_NODE":"240.7976"},{"PERIOD":"95.593","ELEMENT_SET_NO":"999","PERIAPSIS":"545.425","RCS_SIZE":"LARGE","BSTAR":"-0.00003473100000","MEAN_MOTION":"15.06391638","TLE_LINE2":"2 47995  53.0543 207.0877 0002620  80.9489 279.1796 15.06391638 48033","APOAPSIS":"549.054","REF_FRAME":"TEME","EPHEMERIS_TYPE":"0","CLASSIFICATION_TYPE":"U","GP_ID":"194328777","REV_AT_EPOCH":"4803","MEAN_ANOMALY":"279.1796","SITE":"AFETR","ARG_OF_PERICENTER":"80.9489","COUNTRY_CODE":"US","MEAN_ELEMENT_THEORY":"SGP4","NORAD_CAT_ID":"47995","OBJECT_ID":"2021-024U","SEMIMAJOR_AXIS":"6925.374","OBJECT_NAME":"STARLINK-2309","EPOCH":"2022-01-21T12:18:05.284224","MEAN_MOTION_DOT":"-0.00000799","FILE":"3279324","LAUNCH_DATE":"2021-03-24","OBJECT_TYPE":"PAYLOAD","CENTER_NAME":"EARTH","TIME_SYSTEM":"UTC","INCLINATION":"53.0543","DECAY_DATE":null,"TLE_LINE1":"1 47995U 21024U   22021.51256116 -.00000799  00000-0 -34731-4 0  9996","RA_OF_ASC_NODE":"207.0877","ECCENTRICITY":"0.00026200","MEAN_MOTION_DDOT":"0.0000000000000"},{"INCLINATION":"53.0423","DECAY_DATE":null,"TIME_SYSTEM":"UTC","OBJECT_TYPE":"PAYLOAD","CENTER_NAME":"EARTH","LAUNCH_DATE":"2021-03-24","FILE":"3279583","MEAN_MOTION_DDOT":"0.0000000000000","ECCENTRICITY":"0.00035630","RA_OF_ASC_NODE":"156.6217","TLE_LINE1":"1 47996U 21024V   22021.91667824  .00023775  00000-0  71883-3 0  9998","MEAN_MOTION_DOT":"0.00023775","OBJECT_NAME":"STARLINK-2260","EPOCH":"2022-01-21T22:00:00.999936","COUNTRY_CODE":"US","MEAN_ELEMENT_THEORY":"SGP4","ARG_OF_PERICENTER":"108.0404","NORAD_CAT_ID":"47996","MEAN_ANOMALY":"289.5208","SITE":"AFETR","REV_AT_EPOCH":"4829","OBJECT_ID":"2021-024V","SEMIMAJOR_AXIS":"6841.680","REF_FRAME":"TEME","APOAPSIS":"465.983","TLE_LINE2":"2 47996  53.0423 156.6217 0003563 108.0404 289.5208 15.34117548 48292","MEAN_MOTION":"15.34117548","BSTAR":"0.00071883000000","RCS_SIZE":"LARGE","PERIAPSIS":"461.107","ELEMENT_SET_NO":"999","PERIOD":"93.865","GP_ID":"194338135","CLASSIFICATION_TYPE":"U","EPHEMERIS_TYPE":"0"},{"DECAY_DATE":null,"INCLINATION":"53.0547","CENTER_NAME":"EARTH","OBJECT_TYPE":"PAYLOAD","FILE":"3279324","LAUNCH_DATE":"2021-03-24","TIME_SYSTEM":"UTC","RA_OF_ASC_NODE":"242.9774","TLE_LINE1":"1 47997U 21024W   22021.31677780  .00000340  00000-0  41716-4 0  9991","MEAN_MOTION_DDOT":"0.0000000000000","ECCENTRICITY":"0.00018720","MEAN_MOTION_DOT":"0.00000340","EPOCH":"2022-01-21T07:36:09.601920","OBJECT_NAME":"STARLINK-2266","SITE":"AFETR","MEAN_ANOMALY":"282.6464","COUNTRY_CODE":"US","MEAN_ELEMENT_THEORY":"SGP4","NORAD_CAT_ID":"47997","ARG_OF_PERICENTER":"77.4735","REV_AT_EPOCH":"4756","SEMIMAJOR_AXIS":"6925.381","OBJECT_ID":"2021-024W","MEAN_MOTION":"15.06389336","BSTAR":"0.00004171600000","APOAPSIS":"548.543","REF_FRAME":"TEME","TLE_LINE2":"2 47997  53.0547 242.9774 0001872  77.4735 282.6464 15.06389336 47566","ELEMENT_SET_NO":"999","PERIOD":"95.593","PERIAPSIS":"545.950","RCS_SIZE":"LARGE","CLASSIFICATION_TYPE":"U","GP_ID":"194329282","EPHEMERIS_TYPE":"0"},{"MEAN_MOTION_DOT":"0.00001166","OBJECT_NAME":"STARLINK-2296","EPOCH":"2022-01-21T19:58:34.510368","MEAN_MOTION_DDOT":"0.0000000000000","ECCENTRICITY":"0.00021940","RA_OF_ASC_NODE":"215.6431","TLE_LINE1":"1 47998U 21024X   22021.83234387  .00001166  00000-0  97191-4 0  9996","INCLINATION":"53.0550","DECAY_DATE":null,"TIME_SYSTEM":"UTC","CENTER_NAME":"EARTH","OBJECT_TYPE":"PAYLOAD","LAUNCH_DATE":"2021-03-24","FILE":"3279583","GP_ID":"194338161","CLASSIFICATION_TYPE":"U","EPHEMERIS_TYPE":"0","REF_FRAME":"TEME","APOAPSIS":"548.766","TLE_LINE2":"2 47998  53.0550 215.6431 0002194  75.0411 285.0821 15.06389257 47466","MEAN_MOTION":"15.06389257","BSTAR":"0.00009719100000","RCS_SIZE":"LARGE","PERIAPSIS":"545.727","ELEMENT_SET_NO":"999","PERIOD":"95.593","OBJECT_ID":"2021-024X","SEMIMAJOR_AXIS":"6925.381","ARG_OF_PERICENTER":"75.0411","COUNTRY_CODE":"US","MEAN_ELEMENT_THEORY":"SGP4","NORAD_CAT_ID":"47998","SITE":"AFETR","MEAN_ANOMALY":"285.0821","REV_AT_EPOCH":"4746"},{"MEAN_MOTION_DOT":"0.00042001","OBJECT_NAME":"STARLINK-2218","EPOCH":"2022-01-21T22:00:00.999936","INCLINATION":"53.0547","DECAY_DATE":null,"CENTER_NAME":"EARTH","OBJECT_TYPE":"PAYLOAD","LAUNCH_DATE":"2021-03-24","FILE":"3279570","TIME_SYSTEM":"UTC","RA_OF_ASC_NODE":"185.2731","TLE_LINE1":"1 47999U 21024Y   22021.91667824  .00042001  00000-0  28249-2 0  9991","MEAN_MOTION_DDOT":"0.0000000000000","ECCENTRICITY":"0.00024160","MEAN_MOTION":"15.06359097","BSTAR":"0.00282490000000","REF_FRAME":"TEME","APOAPSIS":"549.012","TLE_LINE2":"2 47999  53.0547 185.2731 0002416  81.7072 161.1879 15.06359097 47895","ELEMENT_SET_NO":"999","PERIOD":"95.595","RCS_SIZE":"LARGE","PERIAPSIS":"545.666","CLASSIFICATION_TYPE":"U","GP_ID":"194337997","EPHEMERIS_TYPE":"0","SITE":"AFETR","MEAN_ANOMALY":"161.1879","ARG_OF_PERICENTER":"81.7072","COUNTRY_CODE":"US","NORAD_CAT_ID":"47999","MEAN_ELEMENT_THEORY":"SGP4","REV_AT_EPOCH":"4789","OBJECT_ID":"2021-024Y","SEMIMAJOR_AXIS":"6925.474"},{"MEAN_ANOMALY":"287.0530","SITE":"AFETR","COUNTRY_CODE":"US","MEAN_ELEMENT_THEORY":"SGP4","ARG_OF_PERICENTER":"69.6648","NORAD_CAT_ID":"48000","REV_AT_EPOCH":"359","OBJECT_ID":"2021-024Z","SEMIMAJOR_AXIS":"6925.304","BSTAR":"-0.00199860000000","MEAN_MOTION":"15.06414668","TLE_LINE2":"2 48000  53.0544 171.7559 0002188  69.6648 287.0530 15.06414668  3591","REF_FRAME":"TEME","APOAPSIS":"548.684","PERIOD":"95.591","ELEMENT_SET_NO":"999","RCS_SIZE":"LARGE","PERIAPSIS":"545.653","EPHEMERIS_TYPE":"0","CLASSIFICATION_TYPE":"U","GP_ID":"194329032","INCLINATION":"53.0544","DECAY_DATE":null,"LAUNCH_DATE":"2021-03-24","FILE":"3279324","OBJECT_TYPE":"PAYLOAD","CENTER_NAME":"EARTH","TIME_SYSTEM":"UTC","RA_OF_ASC_NODE":"171.7559","TLE_LINE1":"1 48000U 21024Z   22021.58334491 -.00029939  00000-0 -19986-2 0  9994","ECCENTRICITY":"0.00021880","MEAN_MOTION_DDOT":"0.0000000000000","MEAN_MOTION_DOT":"-0.00029939","EPOCH":"2022-01-21T14:00:01.000224","OBJECT_NAME":"STARLINK-2270"}];
